{
  "schema": "int-temerity-real-tle-snapshot/v1",
  "source": "celestrak",
  "group": "STARLINK",
  "format": "celestrak-gp-json",
  "source_url": "https://celestrak.org/NORAD/elements/gp.php?NAME=STARLINK&FORMAT=JSON",
  "downloaded_at": "2026-07-03T12:25:16.552Z",
  "generated_at": "2026-07-03T12:25:35.465Z",
  "fingerprint": "eb0f9db4",
  "shell_id": "starlink-real-43deg-490km",
  "catalog_count": 10717,
  "shell_count": 3264,
  "selected_count": 1584,
  "mean_altitude_km": 490.23,
  "mean_inclination_deg": 43.0019,
  "mean_mean_motion_rev_per_day": 15.27566421,
  "layout": {
    "planes": 72,
    "satellites_per_plane": 22,
    "selection_strategy": "largest-shell-raan-clusters-even-slot-sampling",
    "raan_cluster_threshold_deg": 2.5,
    "selected_shell_key": "43.0deg-500km"
  },
  "satellites": [
    {
      "satellite_id": "P44-S03",
      "norad_id": 67108,
      "satellite_name": "STARLINK-36208",
      "cospar_id": "2025-299G",
      "shell_id": "starlink-real-43deg-490km",
      "plane_id": 43,
      "slot_id": 2,
      "epoch": "2026-07-02T12:43:25.976064",
      "inclination": 42.9991,
      "raan": 240.0847,
      "eccentricity": 0.0001509,
      "argument_of_perigee": 262.4222,
      "mean_anomaly": 97.64580000000001,
      "mean_motion": 15.2758232,
      "bstar": 0.00062619,
      "status": "active",
      "raw_omm": {
        "OBJECT_NAME": "STARLINK-36208",
        "OBJECT_ID": "2025-299G",
        "EPOCH": "2026-07-02T12:43:25.976064",
        "MEAN_MOTION": 15.2758232,
        "ECCENTRICITY": 0.0001509,
        "INCLINATION": 42.9991,
        "RA_OF_ASC_NODE": 240.0847,
        "ARG_OF_PERICENTER": 262.4222,
        "MEAN_ANOMALY": 97.6458,
        "EPHEMERIS_TYPE": 0,
        "CLASSIFICATION_TYPE": "U",
        "NORAD_CAT_ID": 67108,
        "ELEMENT_SET_NO": 999,
        "REV_AT_EPOCH": 3068,
        "BSTAR": 0.00062619,
        "MEAN_MOTION_DOT": 0.0001701,
        "MEAN_MOTION_DDOT": 0
      },
      "source": "celestrak",
      "source_url": "https://celestrak.org/NORAD/elements/gp.php?NAME=STARLINK&FORMAT=JSON",
      "catalog_fingerprint": "eb0f9db4"
    },
    {
      "satellite_id": "P44-S04",
      "norad_id": 58607,
      "satellite_name": "STARLINK-31069",
      "cospar_id": "2023-200U",
      "shell_id": "starlink-real-43deg-490km",
      "plane_id": 43,
      "slot_id": 3,
      "epoch": "2026-07-02T12:39:48.070080",
      "inclination": 43.0017,
      "raan": 240.31860000000006,
      "eccentricity": 0.0001196,
      "argument_of_perigee": 274.9253,
      "mean_anomaly": 85.14620000000002,
      "mean_motion": 15.27577762,
      "bstar": 0.000032929,
      "status": "active",
      "raw_omm": {
        "OBJECT_NAME": "STARLINK-31069",
        "OBJECT_ID": "2023-200U",
        "EPOCH": "2026-07-02T12:39:48.070080",
        "MEAN_MOTION": 15.27577762,
        "ECCENTRICITY": 0.0001196,
        "INCLINATION": 43.0017,
        "RA_OF_ASC_NODE": 240.3186,
        "ARG_OF_PERICENTER": 274.9253,
        "MEAN_ANOMALY": 85.1462,
        "EPHEMERIS_TYPE": 0,
        "CLASSIFICATION_TYPE": "U",
        "NORAD_CAT_ID": 58607,
        "ELEMENT_SET_NO": 999,
        "REV_AT_EPOCH": 14117,
        "BSTAR": 0.000032929,
        "MEAN_MOTION_DOT": 0.00000644,
        "MEAN_MOTION_DDOT": 0
      },
      "source": "celestrak",
      "source_url": "https://celestrak.org/NORAD/elements/gp.php?NAME=STARLINK&FORMAT=JSON",
      "catalog_fingerprint": "eb0f9db4"
    },
    {
      "satellite_id": "P44-S05",
      "norad_id": 63823,
      "satellite_name": "STARLINK-34043",
      "cospar_id": "2025-092V",
      "shell_id": "starlink-real-43deg-490km",
      "plane_id": 43,
      "slot_id": 4,
      "epoch": "2026-07-02T20:26:48.233760",
      "inclination": 42.9991,
      "raan": 238.12159999999994,
      "eccentricity": 0.0001805,
      "argument_of_perigee": 276.5076,
      "mean_anomaly": 83.55700000000002,
      "mean_motion": 15.27567063,
      "bstar": -0.00051662,
      "status": "active",
      "raw_omm": {
        "OBJECT_NAME": "STARLINK-34043",
        "OBJECT_ID": "2025-092V",
        "EPOCH": "2026-07-02T20:26:48.233760",
        "MEAN_MOTION": 15.27567063,
        "ECCENTRICITY": 0.0001805,
        "INCLINATION": 42.9991,
        "RA_OF_ASC_NODE": 238.1216,
        "ARG_OF_PERICENTER": 276.5076,
        "MEAN_ANOMALY": 83.557,
        "EPHEMERIS_TYPE": 0,
        "CLASSIFICATION_TYPE": "U",
        "NORAD_CAT_ID": 63823,
        "ELEMENT_SET_NO": 999,
        "REV_AT_EPOCH": 6627,
        "BSTAR": -0.00051662,
        "MEAN_MOTION_DOT": -0.00014446,
        "MEAN_MOTION_DDOT": 0
      },
      "source": "celestrak",
      "source_url": "https://celestrak.org/NORAD/elements/gp.php?NAME=STARLINK&FORMAT=JSON",
      "catalog_fingerprint": "eb0f9db4"
    },
    {
      "satellite_id": "P44-S06",
      "norad_id": 63822,
      "satellite_name": "STARLINK-34094",
      "cospar_id": "2025-092U",
      "shell_id": "starlink-real-43deg-490km",
      "plane_id": 43,
      "slot_id": 5,
      "epoch": "2026-07-02T20:23:18.908160",
      "inclination": 42.9993,
      "raan": 238.97000000000003,
      "eccentricity": 0.0001959,
      "argument_of_perigee": 274.0267,
      "mean_anomaly": 86.03610000000003,
      "mean_motion": 15.27594755,
      "bstar": 0.00052945,
      "status": "active",
      "raw_omm": {
        "OBJECT_NAME": "STARLINK-34094",
        "OBJECT_ID": "2025-092U",
        "EPOCH": "2026-07-02T20:23:18.908160",
        "MEAN_MOTION": 15.27594755,
        "ECCENTRICITY": 0.0001959,
        "INCLINATION": 42.9993,
        "RA_OF_ASC_NODE": 238.97,
        "ARG_OF_PERICENTER": 274.0267,
        "MEAN_ANOMALY": 86.0361,
        "EPHEMERIS_TYPE": 0,
        "CLASSIFICATION_TYPE": "U",
        "NORAD_CAT_ID": 63822,
        "ELEMENT_SET_NO": 999,
        "REV_AT_EPOCH": 6631,
        "BSTAR": 0.00052945,
        "MEAN_MOTION_DOT": 0.00014342,
        "MEAN_MOTION_DDOT": 0
      },
      "source": "celestrak",
      "source_url": "https://celestrak.org/NORAD/elements/gp.php?NAME=STARLINK&FORMAT=JSON",
      "catalog_fingerprint": "eb0f9db4"
    },
    {
      "satellite_id": "P44-S07",
      "norad_id": 58593,
      "satellite_name": "STARLINK-31094",
      "cospar_id": "2023-200E",
      "shell_id": "starlink-real-43deg-490km",
      "plane_id": 43,
      "slot_id": 6,
      "epoch": "2026-07-02T20:17:39.100416",
      "inclination": 42.9999,
      "raan": 238.41419999999994,
      "eccentricity": 0.0001139,
      "argument_of_perigee": 299.31870000000004,
      "mean_anomaly": 60.75509999999997,
      "mean_motion": 15.27572512,
      "bstar": -0.000016334,
      "status": "active",
      "raw_omm": {
        "OBJECT_NAME": "STARLINK-31094",
        "OBJECT_ID": "2023-200E",
        "EPOCH": "2026-07-02T20:17:39.100416",
        "MEAN_MOTION": 15.27572512,
        "ECCENTRICITY": 0.0001139,
        "INCLINATION": 42.9999,
        "RA_OF_ASC_NODE": 238.4142,
        "ARG_OF_PERICENTER": 299.3187,
        "MEAN_ANOMALY": 60.7551,
        "EPHEMERIS_TYPE": 0,
        "CLASSIFICATION_TYPE": "U",
        "NORAD_CAT_ID": 58593,
        "ELEMENT_SET_NO": 999,
        "REV_AT_EPOCH": 14122,
        "BSTAR": -0.000016334,
        "MEAN_MOTION_DOT": -0.00000711,
        "MEAN_MOTION_DDOT": 0
      },
      "source": "celestrak",
      "source_url": "https://celestrak.org/NORAD/elements/gp.php?NAME=STARLINK&FORMAT=JSON",
      "catalog_fingerprint": "eb0f9db4"
    },
    {
      "satellite_id": "P44-S08",
      "norad_id": 58604,
      "satellite_name": "STARLINK-31088",
      "cospar_id": "2023-200R",
      "shell_id": "starlink-real-43deg-490km",
      "plane_id": 43,
      "slot_id": 7,
      "epoch": "2026-07-02T20:13:55.506720",
      "inclination": 42.999,
      "raan": 238.37400000000002,
      "eccentricity": 0.0001758,
      "argument_of_perigee": 269.1204,
      "mean_anomaly": 90.94459999999998,
      "mean_motion": 15.27579312,
      "bstar": -0.00013623,
      "status": "active",
      "raw_omm": {
        "OBJECT_NAME": "STARLINK-31088",
        "OBJECT_ID": "2023-200R",
        "EPOCH": "2026-07-02T20:13:55.506720",
        "MEAN_MOTION": 15.27579312,
        "ECCENTRICITY": 0.0001758,
        "INCLINATION": 42.999,
        "RA_OF_ASC_NODE": 238.374,
        "ARG_OF_PERICENTER": 269.1204,
        "MEAN_ANOMALY": 90.9446,
        "EPHEMERIS_TYPE": 0,
        "CLASSIFICATION_TYPE": "U",
        "NORAD_CAT_ID": 58604,
        "ELEMENT_SET_NO": 999,
        "REV_AT_EPOCH": 14122,
        "BSTAR": -0.00013623,
        "MEAN_MOTION_DOT": -0.00004009,
        "MEAN_MOTION_DDOT": 0
      },
      "source": "celestrak",
      "source_url": "https://celestrak.org/NORAD/elements/gp.php?NAME=STARLINK&FORMAT=JSON",
      "catalog_fingerprint": "eb0f9db4"
    }
  ]
}