STARLINK-31094          
1 58593U 23200E   26183.84559144 -.00000711  00000+0 -16334-4 0  9998
2 58593  42.9999 238.4142 0001139 299.3187  60.7551 15.27572512141222
STARLINK-31088          
1 58604U 23200R   26183.84300355 -.00004009  00000+0 -13623-3 0  9990
2 58604  42.9990 238.3740 0001758 269.1204  90.9446 15.27579312141224
STARLINK-31069          
1 58607U 23200U   26183.52763970  .00000644  00000+0  32929-4 0  9994
2 58607  43.0017 240.3186 0001196 274.9253  85.1462 15.27577762141175
STARLINK-34094          
1 63822U 25092U   26183.84952440  .00014342  00000+0  52945-3 0  9996
2 63822  42.9993 238.9700 0001959 274.0267  86.0361 15.27594755 66310
STARLINK-34043          
1 63823U 25092V   26183.85194715 -.00014446  00000+0 -51662-3 0  9993
2 63823  42.9991 238.1216 0001805 276.5076  83.5570 15.27567063 66279
STARLINK-36208          
1 67108U 25299G   26183.53016176  .00017010  00000+0  62619-3 0  9993
2 67108  42.9991 240.0847 0001509 262.4222  97.6458 15.27582320 30689
